UNKNOWN                 
1 81865U          26079.10070692  .00000970  00000+0  78470-3 0  9991
2 81865  82.8047 313.5083 0062923  86.5509  65.0693 13.88297984622050
UNKNOWN                 
1 81893U          26078.44335429  .00000928  00000+0  98967-3 0  9996
2 81893 100.0578  72.1393 0021543  23.7109 336.5027 13.76934085617381
UNKNOWN                 
1 81899U          26078.78661923  .00001817  00000+0  42916-2 0  9990
2 81899 102.4117 203.0833 0169010   8.7320 351.6666 13.20515779591793
UNKNOWN                 
1 81921U          26078.58369636  .00000245  00000+0  13312-3 0  9993
2 81921  65.7083 193.2565 0843165  72.5954 296.5422 13.15481710 38521
UNKNOWN                 
1 81946U          26076.71447402  .00000087  00000+0  45530-3 0  9992
2 81946  66.4193 329.9365 0678132 305.6587  78.3568 12.42646831559684
UNKNOWN                 
1 81964U          26079.26278526  .00000215  00000+0  21420-3 0  9999
2 81964  66.5868  16.5730 0034692  10.2285 349.9493 13.95866164627659
UNKNOWN                 
1 81969U          26079.34916056  .00006313  00000+0  35097-3 0  9990
2 81969  86.6806 110.9930 0005772 145.4792 214.6824 15.13495812454925
UNKNOWN                 
1 81995U          26079.69272693  .00005975  00000+0  11112-2 0  9993
2 81995  65.7483 227.4495 0515232 248.9038 105.6236 14.05162986617988
UNKNOWN                 
1 82043U          26078.36990951  .00003380  00000+0  92578-3 0  9999
2 82043  97.9399 224.0571 0230685 152.5924 208.7655 14.33180001587686
UNKNOWN                 
1 82073U          26079.64065514  .00001620  00000+0  41724-3 0  9994
2 82073  97.7379 151.4280 0204860 349.0797  10.5979 14.39521367589200
UNKNOWN                 
1 82139U          26079.45781410  .00001933  00000+0  96945-3 0  9998
2 82139  99.0118 153.4953 0084419 126.3963 234.5035 14.15966153493941
UNKNOWN                 
1 82162U          26079.77997458  .00003583  00000+0  52579-2 0  9997
2 82162 100.4713  14.9307 0061385 353.0384   6.9892 13.54427198517573
UNKNOWN                 
1 82180U          26078.43699029  .00005308  00000+0  70253-3 0  9999
2 82180  65.6557  14.1462 0294487 167.4909 193.3716 14.54956283615798
UNKNOWN                 
1 82189U          26079.08981512  .00000273  00000+0  10417-3 0  9993
2 82189  74.0332 229.8021 0015861  34.6420 325.5762 14.35289191646383
UNKNOWN                 
1 82199U          26079.50332016  .00000457  00000+0  38180-3 0  9991
2 82199  82.9692 160.3935 0039442 119.3839 258.9782 13.85899979623235
UNKNOWN                 
1 82205U          26078.67928223  .00001442  00000+0  42170-3 0  9996
2 82205  63.0106 330.0053 0496552 303.0078  52.4172 13.94056045621514
UNKNOWN                 
1 82223U          26077.63672177  .00002372  00000+0  12823-2 0  9999
2 82223  99.3155 332.3329 0069351  76.3140 284.5740 14.12383873462328
UNKNOWN                 
1 82250U          26079.71231407  .00003250  00000+0  16728-2 0  9991
2 82250  98.9070 349.8860 0069985 275.8328 113.2347 14.14658738630481
UNKNOWN                 
1 82272U          26077.86826989  .00000983  00000+0  31898-2 0  9999
2 82272  67.5282  26.6450 0753446  44.2853 321.5968 12.33631991283792
UNKNOWN                 
1 82303U          26079.54132728  .00020073  00000+0  15419-1 0  9994
2 82303  81.9352 278.2839 0042550  28.3483   1.2607 13.92554509528014
UNKNOWN                 
1 82311U          26078.58847654  .00000419  00000+0  64659-3 0  9991
2 82311  99.4217 132.9929 0109263  64.7942 296.4477 13.54679387563430
UNKNOWN                 
1 82363U          26079.74801852  .00000496  00000+0  87872-3 0  9994
2 82363  66.9398 344.1031 0450770 102.5035 262.6808 13.15702893303153
UNKNOWN                 
1 82369U          26078.49566489  .00000066  00000+0  73505-4 0  9997
2 82369  98.8956  95.6370 0084247  71.6189 289.4114 13.98233097570693
UNKNOWN                 
1 82381U          26079.09325242  .00020169  00000+0  22931-2 0  9999
2 82381  98.3907 313.7951 0006719 183.0917 177.0257 14.86262725525241
UNKNOWN                 
1 82402U          26078.36089820  .00004255  00000+0  29798-3 0  9998
2 82402  86.6555 113.8198 0008450 148.1345 212.0403 15.04959666468996
UNKNOWN                 
1 82432U          26078.49263034  .00001338  00000+0  28536-3 0  9994
2 82432  74.0066 155.9848 0057142 296.0394  63.4894 14.58986549497010
UNKNOWN                 
1 82448U          26079.46023083  .00004916  00000+0  34212-3 0  9990
2 82448  85.8761 147.0802 0006329 268.5351  91.5158 15.05239492451734
UNKNOWN                 
1 82453U          26078.35074925 -.00000009  00000+0  27013-3 0  9995
2 82453 102.1942  39.7086 0094193  29.0628 331.5634 12.39711746558036
UNKNOWN                 
1 82484U          26079.29879417  .00000175  00000+0  30947-3 0  9995
2 82484  99.3490 100.8870 0043792 307.4551  52.2608 13.55838668603854
UNKNOWN                 
1 82494U          26079.27658512  .00010709  00000+0  11021-2 0  9990
2 82494  74.0068 186.8728 0008165 309.2753  50.7703 14.90352796 99470
UNKNOWN                 
1 82500U          26077.49746179  .00002534  00000+0  11453-2 0  9993
2 82500  70.9658 161.0521 0119726 327.6152  31.7661 14.19280341632536
UNKNOWN                 
1 82524U          26079.75339452  .00002459  00000+0  77476-3 0  9996
2 82524  73.2833 353.5928 0131847 118.7430 273.9055 14.36100233591102
UNKNOWN                 
1 82529U          26079.71592890  .00000416  00000+0  70169-3 0  9997
2 82529  99.7774 164.9843 0237659   1.9224 150.6955 13.41206174602879
UNKNOWN                 
1 82560U          26078.81639241  .00001125  00000+0  93751-3 0  9994
2 82560  99.9968  33.6099 0012172  48.6935 341.6298 13.90941581625367
UNKNOWN                 
1 82597U          26073.92705927  .00001597  00000+0  54687-3 0  9994
2 82597  66.7683 265.1648 0097813 243.2672 115.8394 14.36151757642211
UNKNOWN                 
1 82617U          26079.66932118  .00000696  00000+0  18694-3 0  9995
2 82617  74.0264  59.7995 0038809 337.0696  22.8729 14.49559496651014
UNKNOWN                 
1 82627U          26076.03783821  .00000404  00000+0  10264-2 0  9990
2 82627  82.4786 181.3877 0017632 213.3466 326.6416 13.16452240591237
UNKNOWN                 
1 82642U          26078.54276719  .00002086  00000+0  11589-2 0  9997
2 82642  98.9745 353.4552 0135753 326.8749  32.3972 14.07667331629759
UNKNOWN                 
1 82683U          26079.40405326  .00001022  00000+0  39536-3 0  9998
2 82683  98.1575 145.9849 0211300 109.9362 252.4713 14.20429819476136
UNKNOWN                 
1 82693U          26076.65960542  .00002175  00000+0  25176-2 0  9993
2 82693 100.5272  53.9267 0040192 144.2958 216.0884 13.70070941566758
UNKNOWN                 
1 82698U          26077.75998989  .00000519  00000+0  35126-3 0  9993
2 82698  61.6084 253.2245 0689521 325.3730  30.4138 13.29891998551141
UNKNOWN                 
1 82708U          26079.30619149  .00000656  00000+0  26577-2 0  9997
2 82708 102.1625 296.9119 0062446  84.3928 276.4281 12.90760488536107
UNKNOWN                 
1 82729U          26079.71580869  .00000009  00000+0  17510-3 0  9991
2 82729  67.9713 336.4518 0836728 303.9818  48.4366 12.17870856547135
UNKNOWN                 
1 82739U          26075.67538648  .00000438  00000+0  39296-3 0  9992
2 82739  99.0956 233.8394 0170703  42.3227 334.4156 13.82983110619096
UNKNOWN                 
1 82741U          26078.65353712  .00000999  00000+0  11282-2 0  9999
2 82741 102.8421 150.3162 0195875  50.8867 310.9500 13.66509672610313
UNKNOWN                 
1 82783U          26079.31833625  .00000439  00000+0  12592-2 0  9999
2 82783  90.3468  41.2862 0018973 206.2375 153.7792 13.09107035517125
UNKNOWN                 
1 82798U          26059.48190512  .00001920  00000+0  83774-3 0  9999
2 82798  82.9509 129.4832 0027126 292.8683  82.6977 14.23311743323437
UNKNOWN                 
1 82820U          26077.73461998  .00002629  00000+0  91456-3 0  9995
2 82820  99.7943 256.3098 0048980 102.5227 258.1440 14.35798236639408
UNKNOWN                 
1 82829U          26067.57406411  .00000215  00000+0  71062-2 0  9993
2 82829  65.0962 280.6237 0176265 318.7128  68.5529 11.29171733495776
UNKNOWN                 
1 82854U          26076.04351788  .00001990  00000+0  15426-2 0  9992
2 82854  82.6926 350.6200 0132370  14.0051 346.4724 13.88200593620888
UNKNOWN                 
1 82873U          26079.21924850  .00002601  00000+0  11201-2 0  9998
2 82873  99.9940 351.7752 0040585  12.9692 347.2518 14.25222602635113
UNKNOWN                 
1 82875U          26078.19261602  .00001222  00000+0  32706-3 0  9997
2 82875  98.6893  64.2304 0377611   6.5180 354.0711 14.15339172558116
UNKNOWN                 
1 82893U          26079.59810802  .00007339  00000+0  26586-2 0  9997
2 82893  98.9615 202.9707 0026353 124.8849 235.4817 14.33507396437984
UNKNOWN                 
1 82912U          26077.89242855  .00001213  00000+0  52985-3 0  9995
2 82912  65.8357 312.5482 0770461 225.2402 128.3431 13.28434607592090
UNKNOWN                 
1 82961U          26079.40860433  .00007500  00000+0  10719-1 0  9998
2 82961  99.8248 233.9045 0413941 138.8675 224.4440 13.26359553568645
UNKNOWN                 
1 82965U          26072.67873180  .00001132  00000+0  15749-2 0  9991
2 82965 100.1074 160.1438 0003543 183.0318 177.0799 13.60232436536810
UNKNOWN                 
1 83903U          26079.71160300  .00000078  00000+0  00000+0 0  9998
2 83903   5.9434 289.7719 0122012 254.0773 305.1362  0.99111968 44630
UNKNOWN                 
1 83934U          26079.44948341  .00000035  00000+0  00000+0 0  9994
2 83934   5.5637 296.8889 0223398 275.9042 299.2003  1.02660925 46287
UNKNOWN                 
1 84006U          26076.43525629  .00000049  00000+0  00000+0 0  9996
2 84006  22.3835 158.1421 6166083  93.9109 333.8090  2.16231542 86271
